COMMENT,ORIGINATOR,NORAD_CAT_ID,OBJECT_NAME,OBJECT_TYPE,CLASSIFICATION_TYPE,INTLDES,EPOCH,EPOCH_MICROSECONDS,MEAN_MOTION,ECCENTRICITY,INCLINATION,RA_OF_ASC_NODE,ARG_OF_PERICENTER,MEAN_ANOMALY,EPHEMERIS_TYPE,ELEMENT_SET_NO,REV_AT_EPOCH,BSTAR,MEAN_MOTION_DOT,MEAN_MOTION_DDOT,FILE,TLE_LINE0,TLE_LINE1,TLE_LINE2,OBJECT_ID,OBJECT_NUMBER,SEMIMAJOR_AXIS,PERIOD,APOGEE,PERIGEE,DECAYED
"GENERATED VIA SPACETRACK.ORG API","18 SPCS","55099","SPACEBEE-156","PAYLOAD","U","23001CU","2023-10-12 17:16:19","813728","15.25200363","0.001236","97.4631","345.0979","313.2286","46.7919","0","999","4298","0.0014307","0.00036057","0","4032285","0 SPACEBEE-156","1 55099U 23001CU  23285.71967377  .00036057  00000-0  14307-2 0  9999","2 55099  97.4631 345.0979 0012360 313.2286  46.7919 15.25200363 42980","2023-001CU","55099","6868.321","94.414","498.675","481.697","0"
"GENERATED VIA SPACETRACK.ORG API","18 SPCS","55099","SPACEBEE-156","PAYLOAD","U","23001CU","2023-10-12 17:16:19","813728","15.25200363","0.001236","97.4631","345.0979","313.2286","46.7919","0","999","4298","0.0014307","0.00036057","0","4032297","0 SPACEBEE-156","1 55099U 23001CU  23285.71967377  .00036057  00000-0  14307-2 0  9999","2 55099  97.4631 345.0979 0012360 313.2286  46.7919 15.25200363 42980","2023-001CU","55099","6868.321","94.414","498.675","481.697","0"
"GENERATED VIA SPACETRACK.ORG API","18 SPCS","55099","SPACEBEE-156","PAYLOAD","U","23001CU","2023-10-13 10:35:31","735392","15.25253347","0.0012297","97.4632","345.8177","310.7292","49.2878","0","999","4309","0.0014338","0.00036193","0","4032919","0 SPACEBEE-156","1 55099U 23001CU  23286.44133953  .00036193  00000-0  14338-2 0  9990","2 55099  97.4632 345.8177 0012297 310.7292  49.2878 15.25253347 43092","2023-001CU","55099","6868.162","94.411","498.473","481.581","0"
"GENERATED VIA SPACETRACK.ORG API","18 SPCS","55099","SPACEBEE-156","PAYLOAD","U","23001CU","2023-10-13 21:36:48","929184","15.25300225","0.0012252","97.463","346.2757","309.0197","50.995","0","999","4316","0.0019207","0.00048656","0","4033175","0 SPACEBEE-156","1 55099U 23001CU  23286.90056631  .00048656  00000-0  19207-2 0  9995","2 55099  97.4630 346.2757 0012252 309.0197  50.9950 15.25300225 43161","2023-001CU","55099","6868.021","94.408","498.301","481.471","0"
"GENERATED VIA SPACETRACK.ORG API","18 SPCS","55099","SPACEBEE-156","PAYLOAD","U","23001CU","2023-10-14 03:54:41","145408","15.2531991","0.0012237","97.4629","346.5374","308.0697","51.9436","0","999","4320","0.0016874","0.00042728","0","4033489","0 SPACEBEE-156","1 55099U 23001CU  23287.16297622  .00042728  00000-0  16874-2 0  9992","2 55099  97.4629 346.5374 0012237 308.0697  51.9436 15.25319910 43200","2023-001CU","55099","6867.962","94.406","498.231","481.423","0"
"GENERATED VIA SPACETRACK.ORG API","18 SPCS","55099","SPACEBEE-156","PAYLOAD","U","23001CU","2023-10-14 03:54:41","145408","15.2531991","0.0012237","97.4629","346.5374","308.0697","51.9436","0","999","4320","0.0016874","0.00042728","0","4033811","0 SPACEBEE-156","1 55099U 23001CU  23287.16297622  .00042728  00000-0  16874-2 0  9992","2 55099  97.4629 346.5374 0012237 308.0697  51.9436 15.25319910 43200","2023-001CU","55099","6867.962","94.406","498.231","481.423","0"
"GENERATED VIA SPACETRACK.ORG API","18 SPCS","55099","SPACEBEE-156","PAYLOAD","U","23001CU","2023-10-14 14:55:56","772768","15.25354414","0.0012196","97.4626","346.9953","306.3091","53.702","0","999","4327","0.001437","0.00036383","0","4034164","0 SPACEBEE-156","1 55099U 23001CU  23287.62218487  .00036383  00000-0  14370-2 0  9994","2 55099  97.4626 346.9953 0012196 306.3091  53.7020 15.25354414 43271","2023-001CU","55099","6867.858","94.404","498.099","481.347","0"
"GENERATED VIA SPACETRACK.ORG API","18 SPCS","55099","SPACEBEE-156","PAYLOAD","U","23001CU","2023-10-15 03:31:39","364896","15.25388933","0.0012196","97.4622","347.5187","304.193","55.8151","0","999","4335","0.0013561","0.00034357","0","4034442","0 SPACEBEE-156","1 55099U 23001CU  23288.14698339  .00034357  00000-0  13561-2 0  9990","2 55099  97.4622 347.5187 0012196 304.1930  55.8151 15.25388933 43351","2023-001CU","55099","6867.755","94.402","497.996","481.244","0"
"GENERATED VIA SPACETRACK.ORG API","18 SPCS","55099","SPACEBEE-156","PAYLOAD","U","23001CU","2023-10-15 14:32:53","394720","15.25413241","0.0012191","97.4618","347.9766","302.3305","57.6752","0","999","4342","0.0011474","0.00029059","0","4034787","0 SPACEBEE-156","1 55099U 23001CU  23288.60617355  .00029059  00000-0  11474-2 0  9994","2 55099  97.4618 347.9766 0012191 302.3305  57.6752 15.25413241 43420","2023-001CU","55099","6867.682","94.401","497.919","481.174","0"
"GENERATED VIA SPACETRACK.ORG API","18 SPCS","55099","SPACEBEE-156","PAYLOAD","U","23001CU","2023-10-15 17:41:48","697152","15.25421093","0.0012196","97.4617","348.1074","301.8073","58.1977","0","999","4344","0.0011639","0.00029487","0","4035078","0 SPACEBEE-156","1 55099U 23001CU  23288.73736918  .00029487  00000-0  11639-2 0  9993","2 55099  97.4617 348.1074 0012196 301.8073  58.1977 15.25421093 43446","2023-001CU","55099","6867.658","94.400","497.899","481.147","0"
"GENERATED VIA SPACETRACK.ORG API","18 SPCS","55099","SPACEBEE-156","PAYLOAD","U","23001CU","2023-10-16 03:08:34","277856","15.25445724","0.0012216","97.4616","348.4999","300.1975","59.8052","0","999","4350","0.0012677","0.00032158","0","4035512","0 SPACEBEE-156","1 55099U 23001CU  23289.13095229  .00032158  00000-0  12677-2 0  9993","2 55099  97.4616 348.4999 0012216 300.1975  59.8052 15.25445724 43506","2023-001CU","55099","6867.584","94.399","497.839","481.060","0"
"GENERATED VIA SPACETRACK.ORG API","18 SPCS","55099","SPACEBEE-156","PAYLOAD","U","23001CU","2023-10-16 09:26:24","382464","15.25460573","0.0012194","97.4615","348.7616","299.1507","60.851","0","999","4354","0.0012612","0.00032006","0","4036830","0 SPACEBEE-156","1 55099U 23001CU  23289.39333776  .00032006  00000-0  12612-2 0  9994","2 55099  97.4615 348.7616 0012194 299.1507  60.8510 15.25460573 43541","2023-001CU","55099","6867.540","94.398","497.779","481.030","0"
"GENERATED VIA SPACETRACK.ORG API","18 SPCS","55099","SPACEBEE-156","PAYLOAD","U","23001CU","2023-10-16 17:18:41","710176","15.25477988","0.0012195","97.4611","349.0886","297.872","62.1282","0","999","4359","0.0011486","0.00029147","0","4037312","0 SPACEBEE-156","1 55099U 23001CU  23289.72131609  .00029147  00000-0  11486-2 0  9992","2 55099  97.4611 349.0886 0012195 297.8720  62.1282 15.25477988 43597","2023-001CU","55099","6867.488","94.397","497.727","480.978","0"
"GENERATED VIA SPACETRACK.ORG API","18 SPCS","55099","SPACEBEE-156","PAYLOAD","U","23001CU","2023-10-16 17:18:41","710176","15.25477988","0.0012195","97.4611","349.0886","297.872","62.1282","0","999","4359","0.0011486","0.00029147","0","4038796","0 SPACEBEE-156","1 55099U 23001CU  23289.72131609  .00029147  00000-0  11486-2 0  9992","2 55099  97.4611 349.0886 0012195 297.8720  62.1282 15.25477988 43597","2023-001CU","55099","6867.488","94.397","497.727","480.978","0"
"GENERATED VIA SPACETRACK.ORG API","18 SPCS","55099","SPACEBEE-156","PAYLOAD","U","23001CU","2023-10-18 02:22:14","724192","15.25556818","0.0012022","97.4606","350.4625","292.5498","67.4467","0","999","4380","0.0012624","0.00032128","0","4040140","0 SPACEBEE-156","1 55099U 23001CU  23291.09878153  .00032128  00000-0  12624-2 0  9995","2 55099  97.4606 350.4625 0012022 292.5498  67.4467 15.25556818 43808","2023-001CU","55099","6867.251","94.392","497.372","480.860","0"
"GENERATED VIA SPACETRACK.ORG API","18 SPCS","55099","SPACEBEE-156","PAYLOAD","U","23001CU","2023-10-18 10:14:30","232320","15.25572316","0.001201","97.4605","350.7891","291.3121","68.6834","0","999","4385","0.00106","0.00026959","0","4040119","0 SPACEBEE-156","1 55099U 23001CU  23291.42673880  .00026959  00000-0  10600-2 0  9999","2 55099  97.4605 350.7891 0012010 291.3121  68.6834 15.25572316 43859","2023-001CU","55099","6867.204","94.391","497.317","480.822","0"
"GENERATED VIA SPACETRACK.ORG API","18 SPCS","55099","SPACEBEE-156","PAYLOAD","U","23001CU","2023-10-19 03:33:27","123840","15.25623652","0.0012051","97.4603","351.5089","288.6428","71.3501","0","999","4396","0.001487","0.00037963","0","4041576","0 SPACEBEE-156","1 55099U 23001CU  23292.14823060  .00037963  00000-0  14870-2 0  9996","2 55099  97.4603 351.5089 0012051 288.6428  71.3501 15.25623652 43963","2023-001CU","55099","6867.050","94.388","497.191","480.640","0"
"GENERATED VIA SPACETRACK.ORG API","18 SPCS","55099","SPACEBEE-156","PAYLOAD","U","23001CU","2023-10-19 03:33:27","123840","15.25623652","0.0012051","97.4603","351.5089","288.6428","71.3501","0","999","4396","0.001487","0.00037963","0","4042363","0 SPACEBEE-156","1 55099U 23001CU  23292.14823060  .00037963  00000-0  14870-2 0  9996","2 55099  97.4603 351.5089 0012051 288.6428  71.3501 15.25623652 43963","2023-001CU","55099","6867.050","94.388","497.191","480.640","0"
"GENERATED VIA SPACETRACK.ORG API","18 SPCS","55099","SPACEBEE-156","PAYLOAD","U","23001CU","2023-10-19 14:34:34","949280","15.25656291","0.0012055","97.4602","351.9664","286.6582","73.3332","0","999","4403","0.0014676","0.00037501","0","4042947","0 SPACEBEE-156","1 55099U 23001CU  23292.60734895  .00037501  00000-0  14676-2 0  9996","2 55099  97.4602 351.9664 0012055 286.6582  73.3332 15.25656291 44036","2023-001CU","55099","6866.952","94.386","497.096","480.539","0"
"GENERATED VIA SPACETRACK.ORG API","18 SPCS","55099","SPACEBEE-156","PAYLOAD","U","23001CU","2023-10-20 03:10:08","446080","15.25693827","0.0012078","97.4603","352.4897","284.6987","75.2912","0","999","4411","0.0013268","0.00033919","0","4044291","0 SPACEBEE-156","1 55099U 23001CU  23293.13204220  .00033919  00000-0  13268-2 0  9994","2 55099  97.4603 352.4897 0012078 284.6987  75.2912 15.25693827 44113","2023-001CU","55099","6866.840","94.383","496.999","480.411","0"
